start=new Date('2021-09-27T00:00:00.000Z').valueOf();
sats=[{"ARG_OF_PERICENTER":"79.3945","MEAN_MOTION_DDOT":"0.0000000000000","MEAN_MOTION":"15.06394099","MEAN_ELEMENT_THEORY":"SGP4","LAUNCH_DATE":"2020-06-04","REF_FRAME":"TEME","TLE_LINE1":"1 45681U 20035AA  21269.41306122  .00000088  00000-0  24854-4 0  9996","ELEMENT_SET_NO":"999","MEAN_MOTION_DOT":"0.00000088","TLE_LINE2":"2 45681  53.0529 152.7742 0001947  79.3945 280.7263 15.06394099 73909","EPHEMERIS_TYPE":"0","CLASSIFICATION_TYPE":"U","PERIOD":"95.593","EPOCH":"2021-09-26T09:54:48.489408","NORAD_CAT_ID":"45681","INCLINATION":"53.0529","BSTAR":"0.00002485400000","OBJECT_ID":"2020-035AA","COUNTRY_CODE":"US","MEAN_ANOMALY":"280.7263","RCS_SIZE":"LARGE","CENTER_NAME":"EARTH","ECCENTRICITY":"0.00019470","OBJECT_NAME":"STARLINK-1396","TIME_SYSTEM":"UTC","DECAY_DATE":null,"SEMIMAJOR_AXIS":"6925.367","OBJECT_TYPE":"PAYLOAD","PERIAPSIS":"545.883","REV_AT_EPOCH":"7390","GP_ID":"185549349","APOAPSIS":"548.580","RA_OF_ASC_NODE":"152.7742","FILE":"3129258","SITE":"AFETR"},{"TLE_LINE2":"2 45682  53.0550 152.7459 0002232  73.1341 286.9893 15.06401863 73498","CLASSIFICATION_TYPE":"U","EPHEMERIS_TYPE":"0","PERIOD":"95.592","EPOCH":"2021-09-26T10:05:24.802080","NORAD_CAT_ID":"45682","TLE_LINE1":"1 45682U 20035AB  21269.42042595 -.00000705  00000-0 -28392-4 0  9998","ELEMENT_SET_NO":"999","MEAN_MOTION_DOT":"-0.00000705","OBJECT_ID":"2020-035AB","BSTAR":"-0.00002839200000","MEAN_ANOMALY":"286.9893","COUNTRY_CODE":"US","CENTER_NAME":"EARTH","RCS_SIZE":"LARGE","INCLINATION":"53.0550","DECAY_DATE":null,"SEMIMAJOR_AXIS":"6925.343","OBJECT_TYPE":"PAYLOAD","PERIAPSIS":"545.662","ECCENTRICITY":"0.00022320","OBJECT_NAME":"STARLINK-1397","TIME_SYSTEM":"UTC","APOAPSIS":"548.754","RA_OF_ASC_NODE":"152.7459","SITE":"AFETR","FILE":"3129436","REV_AT_EPOCH":"7349","GP_ID":"185557328","ARG_OF_PERICENTER":"73.1341","MEAN_MOTION":"15.06401863","MEAN_ELEMENT_THEORY":"SGP4","MEAN_MOTION_DDOT":"0.0000000000000","LAUNCH_DATE":"2020-06-04","REF_FRAME":"TEME"},{"INCLINATION":"53.0551","MEAN_ANOMALY":"284.9481","COUNTRY_CODE":"US","CENTER_NAME":"EARTH","RCS_SIZE":"LARGE","OBJECT_ID":"2020-035AC","BSTAR":"0.00002952800000","ELEMENT_SET_NO":"999","MEAN_MOTION_DOT":"0.00000158","TLE_LINE1":"1 45683U 20035AC  21269.40199504  .00000158  00000-0  29528-4 0  9992","EPOCH":"2021-09-26T09:38:52.371456","NORAD_CAT_ID":"45683","TLE_LINE2":"2 45683  53.0551 152.8245 0002383  75.1772 284.9481 15.06400149 73904","CLASSIFICATION_TYPE":"U","EPHEMERIS_TYPE":"0","PERIOD":"95.592","REV_AT_EPOCH":"7390","GP_ID":"185550351","FILE":"3129258","SITE":"AFETR","APOAPSIS":"548.863","RA_OF_ASC_NODE":"152.8245","OBJECT_NAME":"STARLINK-1399","TIME_SYSTEM":"UTC","ECCENTRICITY":"0.00023830","PERIAPSIS":"545.563","DECAY_DATE":null,"SEMIMAJOR_AXIS":"6925.348","OBJECT_TYPE":"PAYLOAD","ARG_OF_PERICENTER":"75.1772","REF_FRAME":"TEME","LAUNCH_DATE":"2020-06-04","MEAN_MOTION_DDOT":"0.0000000000000","MEAN_MOTION":"15.06400149","MEAN_ELEMENT_THEORY":"SGP4"},{"LAUNCH_DATE":"2020-06-04","REF_FRAME":"TEME","MEAN_MOTION_DDOT":"0.0000000000000","MEAN_MOTION":"15.06396071","MEAN_ELEMENT_THEORY":"SGP4","ARG_OF_PERICENTER":"78.7032","GP_ID":"185549099","REV_AT_EPOCH":"7390","RA_OF_ASC_NODE":"152.9227","APOAPSIS":"548.769","FILE":"3129258","SITE":"AFETR","ECCENTRICITY":"0.00022290","OBJECT_NAME":"STARLINK-1401","TIME_SYSTEM":"UTC","OBJECT_TYPE":"PAYLOAD","SEMIMAJOR_AXIS":"6925.361","DECAY_DATE":null,"PERIAPSIS":"545.682","INCLINATION":"53.0527","BSTAR":"-0.00022294000000","OBJECT_ID":"2020-035AD","RCS_SIZE":"LARGE","CENTER_NAME":"EARTH","MEAN_ANOMALY":"281.4207","COUNTRY_CODE":"US","TLE_LINE1":"1 45684U 20035AD  21269.37987707 -.00003601  00000-0 -22294-3 0  9999","MEAN_MOTION_DOT":"-0.00003601","ELEMENT_SET_NO":"999","PERIOD":"95.592","TLE_LINE2":"2 45684  53.0527 152.9227 0002229  78.7032 281.4207 15.06396071 73902","EPHEMERIS_TYPE":"0","CLASSIFICATION_TYPE":"U","NORAD_CAT_ID":"45684","EPOCH":"2021-09-26T09:07:01.378848"},{"ELEMENT_SET_NO":"999","MEAN_MOTION_DOT":"-0.00000110","TLE_LINE1":"1 45685U 20035AE  21269.37619372 -.00000110  00000-0  11510-4 0  9991","EPOCH":"2021-09-26T09:01:43.137408","NORAD_CAT_ID":"45685","TLE_LINE2":"2 45685  53.0546 152.9441 0002155  74.6569 285.4658 15.06392534 73904","EPHEMERIS_TYPE":"0","CLASSIFICATION_TYPE":"U","PERIOD":"95.593","INCLINATION":"53.0546","COUNTRY_CODE":"US","MEAN_ANOMALY":"285.4658","CENTER_NAME":"EARTH","RCS_SIZE":"LARGE","BSTAR":"0.00001151000000","OBJECT_ID":"2020-035AE","OBJECT_NAME":"STARLINK-1402","TIME_SYSTEM":"UTC","ECCENTRICITY":"0.00021550","PERIAPSIS":"545.744","DECAY_DATE":null,"OBJECT_TYPE":"PAYLOAD","SEMIMAJOR_AXIS":"6925.371","REV_AT_EPOCH":"7390","GP_ID":"185548850","SITE":"AFETR","FILE":"3129258","APOAPSIS":"548.729","RA_OF_ASC_NODE":"152.9441","ARG_OF_PERICENTER":"74.6569","MEAN_MOTION_DDOT":"0.0000000000000","MEAN_MOTION":"15.06392534","MEAN_ELEMENT_THEORY":"SGP4","REF_FRAME":"TEME","LAUNCH_DATE":"2020-06-04"},{"INCLINATION":"53.0526","RCS_SIZE":"LARGE","CENTER_NAME":"EARTH","MEAN_ANOMALY":"289.3066","COUNTRY_CODE":"US","OBJECT_ID":"2020-035AF","BSTAR":"0.00003098400000","MEAN_MOTION_DOT":"0.00000180","ELEMENT_SET_NO":"999","TLE_LINE1":"1 45686U 20035AF  21269.36881933  .00000180  00000-0  30984-4 0  9997","NORAD_CAT_ID":"45686","EPOCH":"2021-09-26T08:51:05.990112","PERIOD":"95.592","TLE_LINE2":"2 45686  53.0526 152.9755 0002036  70.8143 289.3066 15.06405254 73499","EPHEMERIS_TYPE":"0","CLASSIFICATION_TYPE":"U","GP_ID":"185557371","REV_AT_EPOCH":"7349","SITE":"AFETR","FILE":"3129462","RA_OF_ASC_NODE":"152.9755","APOAPSIS":"548.607","TIME_SYSTEM":"UTC","OBJECT_NAME":"STARLINK-1404","ECCENTRICITY":"0.00020360","PERIAPSIS":"545.787","SEMIMAJOR_AXIS":"6925.332","OBJECT_TYPE":"PAYLOAD","DECAY_DATE":null,"ARG_OF_PERICENTER":"70.8143","REF_FRAME":"TEME","LAUNCH_DATE":"2020-06-04","MEAN_MOTION_DDOT":"0.0000000000000","MEAN_ELEMENT_THEORY":"SGP4","MEAN_MOTION":"15.06405254"},{"PERIAPSIS":"548.381","DECAY_DATE":null,"OBJECT_TYPE":"PAYLOAD","SEMIMAJOR_AXIS":"6927.947","OBJECT_NAME":"STARLINK-1406","TIME_SYSTEM":"UTC","ECCENTRICITY":"0.00020650","SITE":"AFETR","FILE":"3129258","APOAPSIS":"551.242","RA_OF_ASC_NODE":"143.0313","REV_AT_EPOCH":"7401","GP_ID":"185549852","EPOCH":"2021-09-26T08:31:32.211552","NORAD_CAT_ID":"45687","EPHEMERIS_TYPE":"0","TLE_LINE2":"2 45687  53.0012 143.0313 0002065  66.8307 293.2899 15.05552680 74012","CLASSIFICATION_TYPE":"U","PERIOD":"95.646","ELEMENT_SET_NO":"999","MEAN_MOTION_DOT":"-0.00004372","TLE_LINE1":"1 45687U 20035AG  21269.35523393 -.00004372  00000-0 -28125-3 0  9992","COUNTRY_CODE":"US","MEAN_ANOMALY":"293.2899","CENTER_NAME":"EARTH","RCS_SIZE":"LARGE","OBJECT_ID":"2020-035AG","BSTAR":"-0.00028125000000","INCLINATION":"53.0012","MEAN_MOTION":"15.05552680","MEAN_ELEMENT_THEORY":"SGP4","MEAN_MOTION_DDOT":"0.0000000000000","REF_FRAME":"TEME","LAUNCH_DATE":"2020-06-04","ARG_OF_PERICENTER":"66.8307"},{"ARG_OF_PERICENTER":"80.0288","MEAN_MOTION":"15.06403244","MEAN_ELEMENT_THEORY":"SGP4","MEAN_MOTION_DDOT":"0.0000000000000","REF_FRAME":"TEME","LAUNCH_DATE":"2020-06-04","EPOCH":"2021-09-25T23:07:15.120480","NORAD_CAT_ID":"45688","EPHEMERIS_TYPE":"0","TLE_LINE2":"2 45688  53.0528 154.7911 0001642  80.0288 280.0886 15.06403244 73835","CLASSIFICATION_TYPE":"U","PERIOD":"95.592","ELEMENT_SET_NO":"999","MEAN_MOTION_DOT":"-0.00000665","TLE_LINE1":"1 45688U 20035AH  21268.96336945 -.00000665  00000-0 -25759-4 0  9996","COUNTRY_CODE":"US","MEAN_ANOMALY":"280.0886","RCS_SIZE":"LARGE","CENTER_NAME":"EARTH","BSTAR":"-0.00002575900000","OBJECT_ID":"2020-035AH","INCLINATION":"53.0528","PERIAPSIS":"546.066","DECAY_DATE":null,"SEMIMAJOR_AXIS":"6925.339","OBJECT_TYPE":"PAYLOAD","OBJECT_NAME":"STARLINK-1408","TIME_SYSTEM":"UTC","ECCENTRICITY":"0.00016420","FILE":"3129258","SITE":"AFETR","APOAPSIS":"548.341","RA_OF_ASC_NODE":"154.7911","REV_AT_EPOCH":"7383","GP_ID":"185548600"},{"SITE":"AFETR","FILE":"3129258","APOAPSIS":"548.583","RA_OF_ASC_NODE":"152.8877","REV_AT_EPOCH":"7381","GP_ID":"185549350","PERIAPSIS":"545.873","DECAY_DATE":null,"OBJECT_TYPE":"PAYLOAD","SEMIMAJOR_AXIS":"6925.363","OBJECT_NAME":"STARLINK-1413","TIME_SYSTEM":"UTC","ECCENTRICITY":"0.00019560","COUNTRY_CODE":"US","MEAN_ANOMALY":"289.0917","RCS_SIZE":"LARGE","CENTER_NAME":"EARTH","BSTAR":"0.00003352500000","OBJECT_ID":"2020-035AJ","INCLINATION":"53.0530","EPOCH":"2021-09-26T09:17:38.355936","NORAD_CAT_ID":"45689","TLE_LINE2":"2 45689  53.0530 152.8877 0001956  71.0284 289.0917 15.06395278 73812","CLASSIFICATION_TYPE":"U","EPHEMERIS_TYPE":"0","PERIOD":"95.592","ELEMENT_SET_NO":"999","MEAN_MOTION_DOT":"0.00000218","TLE_LINE1":"1 45689U 20035AJ  21269.38724949  .00000218  00000-0  33525-4 0  9991","REF_FRAME":"TEME","LAUNCH_DATE":"2020-06-04","MEAN_ELEMENT_THEORY":"SGP4","MEAN_MOTION":"15.06395278","MEAN_MOTION_DDOT":"0.0000000000000","ARG_OF_PERICENTER":"71.0284"},{"REV_AT_EPOCH":"7381","GP_ID":"185549602","FILE":"3129258","SITE":"AFETR","APOAPSIS":"551.197","RA_OF_ASC_NODE":"154.8055","TIME_SYSTEM":"UTC","OBJECT_NAME":"STARLINK-1414","ECCENTRICITY":"0.00022010","PERIAPSIS":"548.147","DECAY_DATE":null,"OBJECT_TYPE":"PAYLOAD","SEMIMAJOR_AXIS":"6927.807","INCLINATION":"53.0008","MEAN_ANOMALY":"284.0779","COUNTRY_CODE":"US","CENTER_NAME":"EARTH","RCS_SIZE":"LARGE","BSTAR":"0.00011669000000","OBJECT_ID":"2020-035AK","ELEMENT_SET_NO":"999","MEAN_MOTION_DOT":"0.00001422","TLE_LINE1":"1 45690U 20035AK  21268.95875479  .00001422  00000-0  11669-3 0  9992","EPOCH":"2021-09-25T23:00:36.413856","NORAD_CAT_ID":"45690","TLE_LINE2":"2 45690  53.0008 154.8055 0002201  76.0454 284.0779 15.05598243 73819","EPHEMERIS_TYPE":"0","CLASSIFICATION_TYPE":"U","PERIOD":"95.643","REF_FRAME":"TEME","LAUNCH_DATE":"2020-06-04","MEAN_MOTION_DDOT":"0.0000000000000","MEAN_ELEMENT_THEORY":"SGP4","MEAN_MOTION":"15.05598243","ARG_OF_PERICENTER":"76.0454"}];
